{"type": "FeatureCollection", "features": [ {"type": "Feature", "properties": {"norad_id": 31631, "name": "FENGYUN 1C DEB", "group": "fengyun-1c-debris", "lat": 63.28411583832088, "lon": 88.22609218135933, "alt_km": 679.1655764988727, "timestamp": "2025-12-05T09:41:19.413243+00:00", "meta": {"OBJECT_NAME": "FENGYUN 1C DEB", "OBJECT_ID": "1999-025CAM", "EPOCH": "2025-11-28T23:34:31.482048", "MEAN_MOTION": 14.69297371, "ECCENTRICITY": 0.0067617, "INCLINATION": 99.342, "RA_OF_ASC_NODE": 241.7949, "ARG_OF_PERICENTER": 13.5591, "MEAN_ANOMALY": 346.7407, "EPHEMERIS_TYPE": 0, "CLASSIFICATION_TYPE": "U", "NORAD_CAT_ID": 31631, "ELEMENT_SET_NO": 999, "REV_AT_EPOCH": 63770, "BSTAR": 0.0088153913, "MEAN_MOTION_DOT": 0.00054223, "MEAN_MOTION_DDOT": 0}, "tle": {"line1": "1 31631U 99025CAM 25332.98230882  .00054223  00000+0  88154-2 0  9997", "line2": "2 31631  99.3420 241.7949 0067617  13.5591 346.7407 14.69297371637703"}}, "geometry": {"type": "Point", "coordinates": [88.22609218135933, 63.28411583832088]}}, {"type": "Feature", "properties": {"norad_id": 31633, "name": "FENGYUN 1C DEB", "group": "fengyun-1c-debris", "lat": -53.66115810156613, "lon": 161.86169848260022, "alt_km": 842.4315768986025, "timestamp": "2025-12-05T09:41:19.413253+00:00", "meta": {"OBJECT_NAME": "FENGYUN 1C DEB", "OBJECT_ID": "1999-025CAP", "EPOCH": "2025-11-15T20:43:47.485920", "MEAN_MOTION": 14.06334417, "ECCENTRICITY": 0.00656916, "INCLINATION": 98.7152, "RA_OF_ASC_NODE": 335.0833, "ARG_OF_PERICENTER": 248.7649, "MEAN_ANOMALY": 110.6494, "EPHEMERIS_TYPE": 0, "CLASSIFICATION_TYPE": "U", "NORAD_CAT_ID": 31633, "ELEMENT_SET_NO": 999, "REV_AT_EPOCH": 56706, "BSTAR": 0.0011592605, "MEAN_MOTION_DOT": 1.907e-05, "MEAN_MOTION_DDOT": 0}, "tle": {"line1": "1 31633U 99025CAP 25319.86374405  .00001907  00000+0  11593-2 0  9995", "line2": "2 31633  98.7152 335.0833 0065691 248.7649 110.6494 14.06334417567064"}}, "geometry": {"type": "Point", "coordinates": [161.86169848260022, -53.66115810156613]}}, {"type": "Feature", "properties": {"norad_id": 31634, "name": "FENGYUN 1C DEB", "group": "fengyun-1c-debris", "lat": 72.86060964175299, "lon": -6.5736586413972695, "alt_km": 918.4804091323822, "timestamp": "2025-12-05T09:41:19.413263+00:00", "meta": {"OBJECT_NAME": "FENGYUN 1C DEB", "OBJECT_ID": "1999-025CAQ", "EPOCH": "2025-12-02T09:00:27.072576", "MEAN_MOTION": 13.94657889, "ECCENTRICITY": 0.00916924, "INCLINATION": 99.3683, "RA_OF_ASC_NODE": 22.7184, "ARG_OF_PERICENTER": 185.6903, "MEAN_ANOMALY": 174.3223, "EPHEMERIS_TYPE": 0, "CLASSIFICATION_TYPE": "U", "NORAD_CAT_ID": 31634, "ELEMENT_SET_NO": 999, "REV_AT_EPOCH": 56379, "BSTAR": 0.00031553586, "MEAN_MOTION_DOT": 3.91e-06, "MEAN_MOTION_DDOT": 0}, "tle": {"line1": "1 31634U 99025CAQ 25336.37531334  .00000391  00000+0  31554-3 0  9993", "line2": "2 31634  99.3683  22.7184 0091692 185.6903 174.3223 13.94657889563792"}}, "geometry": {"type": "Point", "coordinates": [-6.5736586413972695, 72.86060964175299]}}, {"type": "Feature", "properties": {"norad_id": 31639, "name": "FENGYUN 1C DEB", "group": "fengyun-1c-debris", "lat": -22.148871067979645, "lon": 102.24449256349807, "alt_km": 856.1651148077635, "timestamp": "2025-12-05T09:41:19.413274+00:00", "meta": {"OBJECT_NAME": "FENGYUN 1C DEB", "OBJECT_ID": "1999-025CAV", "EPOCH": "2025-12-04T03:19:59.849760", "MEAN_MOTION": 13.8515938, "ECCENTRICITY": 0.01612704, "INCLINATION": 98.7418, "RA_OF_ASC_NODE": 284.6558, "ARG_OF_PERICENTER": 168.5081, "MEAN_ANOMALY": 209.0641, "EPHEMERIS_TYPE": 0, "CLASSIFICATION_TYPE": "U", "NORAD_CAT_ID": 31639, "ELEMENT_SET_NO": 999, "REV_AT_EPOCH": 93569, "BSTAR": 0.00017772868, "MEAN_MOTION_DOT": 1.84e-06, "MEAN_MOTION_DDOT": 0}, "tle": {"line1": "1 31639U 99025CAV 25338.13888715  .00000184  00000+0  17773-3 0  9999", "line2": "2 31639  98.7418 284.6558 0161270 168.5081 209.0641 13.85159380935692"}}, "geometry": {"type": "Point", "coordinates": [102.24449256349807, -22.148871067979645]}}, {"type": "Feature", "properties": {"norad_id": 31642, "name": "FENGYUN 1C DEB", "group": "fengyun-1c-debris", "lat": -9.583480563214218, "lon": -119.71958486139623, "alt_km": 781.8369999493061, "timestamp": "2025-12-05T09:41:19.413284+00:00", "meta": {"OBJECT_NAME": "FENGYUN 1C DEB", "OBJECT_ID": "1999-025CAY", "EPOCH": "2025-12-03T11:33:37.797408", "MEAN_MOTION": 14.33368249, "ECCENTRICITY": 0.01189908, "INCLINATION": 98.5051, "RA_OF_ASC_NODE": 59.8396, "ARG_OF_PERICENTER": 284.1031, "MEAN_ANOMALY": 74.6953, "EPHEMERIS_TYPE": 0, "CLASSIFICATION_TYPE": "U", "NORAD_CAT_ID": 31642, "ELEMENT_SET_NO": 999, "REV_AT_EPOCH": 96886, "BSTAR": 0.00051625106, "MEAN_MOTION_DOT": 1.494e-05, "MEAN_MOTION_DDOT": 0}, "tle": {"line1": "1 31642U 99025CAY 25337.48168747  .00001494  00000+0  51625-3 0  9995", "line2": "2 31642  98.5051  59.8396 0118990 284.1031  74.6953 14.33368249968867"}}, "geometry": {"type": "Point", "coordinates": [-119.71958486139623, -9.583480563214218]}}, {"type": "Feature", "properties": {"norad_id": 31644, "name": "FENGYUN 1C DEB", "group": "fengyun-1c-debris", "lat": -54.360713324619255, "lon": -118.89619622555672, "alt_km": 689.7558395842207, "timestamp": "2025-12-05T09:41:19.413294+00:00", "meta": {"OBJECT_NAME": "FENGYUN 1C DEB", "OBJECT_ID": "1999-025CBA", "EPOCH": "2025-12-03T22:14:08.253024", "MEAN_MOTION": 14.6773394, "ECCENTRICITY": 0.0154052, "INCLINATION": 98.6712, "RA_OF_ASC_NODE": 227.2502, "ARG_OF_PERICENTER": 210.7881, "MEAN_ANOMALY": 211.3803, "EPHEMERIS_TYPE": 0, "CLASSIFICATION_TYPE": "U", "NORAD_CAT_ID": 31644, "ELEMENT_SET_NO": 999, "REV_AT_EPOCH": 70915, "BSTAR": 0.0020029, "MEAN_MOTION_DOT": 0.00013613, "MEAN_MOTION_DDOT": 0}, "tle": {"line1": "1 31644U 99025CBA 25337.92648441  .00013613  00000+0  20029-2 0  9999", "line2": "2 31644  98.6712 227.2502 0154052 210.7881 211.3803 14.67733940709151"}}, "geometry": {"type": "Point", "coordinates": [-118.89619622555672, -54.360713324619255]}}, {"type": "Feature", "properties": {"norad_id": 31646, "name": "FENGYUN 1C DEB", "group": "fengyun-1c-debris", "lat": 80.56618024387052, "lon": -110.36296911958853, "alt_km": 856.3365626911409, "timestamp": "2025-12-05T09:41:19.413304+00:00", "meta": {"OBJECT_NAME": "FENGYUN 1C DEB", "OBJECT_ID": "1999-025CBC", "EPOCH": "2025-11-26T07:52:55.511328", "MEAN_MOTION": 14.14089846, "ECCENTRICITY": 0.00324277, "INCLINATION": 98.6918, "RA_OF_ASC_NODE": 353.7887, "ARG_OF_PERICENTER": 261.5394, "MEAN_ANOMALY": 98.2104, "EPHEMERIS_TYPE": 0, "CLASSIFICATION_TYPE": "U", "NORAD_CAT_ID": 31646, "ELEMENT_SET_NO": 999, "REV_AT_EPOCH": 62959, "BSTAR": 0.00056384742, "MEAN_MOTION_DOT": 1.035e-05, "MEAN_MOTION_DDOT": 0}, "tle": {"line1": "1 31646U 99025CBC 25330.32842027  .00001035  00000+0  56385-3 0  9994", "line2": "2 31646  98.6918 353.7887 0032427 261.5394  98.2104 14.14089846629592"}}, "geometry": {"type": "Point", "coordinates": [-110.36296911958853, 80.56618024387052]}}, {"type": "Feature", "properties": {"norad_id": 31655, "name": "FENGYUN 1C DEB", "group": "fengyun-1c-debris", "lat": 26.669104911626626, "lon": 110.32972091707978, "alt_km": 807.9543427447688, "timestamp": "2025-12-05T09:41:19.413315+00:00", "meta": {"OBJECT_NAME": "FENGYUN 1C DEB", "OBJECT_ID": "1999-025CBM", "EPOCH": "2025-12-02T03:33:47.704320", "MEAN_MOTION": 13.63773307, "ECCENTRICITY": 0.02884116, "INCLINATION": 99.2856, "RA_OF_ASC_NODE": 282.5047, "ARG_OF_PERICENTER": 165.6221, "MEAN_ANOMALY": 213.94, "EPHEMERIS_TYPE": 0, "CLASSIFICATION_TYPE": "U", "NORAD_CAT_ID": 31655, "ELEMENT_SET_NO": 999, "REV_AT_EPOCH": 59575, "BSTAR": 0.002889873, "MEAN_MOTION_DOT": 2.997e-05, "MEAN_MOTION_DDOT": 0}, "tle": {"line1": "1 31655U 99025CBM 25336.14846880  .00002997  00000+0  28899-2 0  9997", "line2": "2 31655  99.2856 282.5047 0288411 165.6221 213.9400 13.63773307595756"}}, "geometry": {"type": "Point", "coordinates": [110.32972091707978, 26.669104911626626]}}, {"type": "Feature", "properties": {"norad_id": 31656, "name": "FENGYUN 1C DEB", "group": "fengyun-1c-debris", "lat": -65.46125578544287, "lon": 126.79001951036618, "alt_km": 759.383454222203, "timestamp": "2025-12-05T09:41:19.413326+00:00", "meta": {"OBJECT_NAME": "FENGYUN 1C DEB", "OBJECT_ID": "1999-025CBN", "EPOCH": "2025-12-03T05:09:50.756256", "MEAN_MOTION": 14.46757304, "ECCENTRICITY": 0.0022717, "INCLINATION": 99.1936, "RA_OF_ASC_NODE": 325.1943, "ARG_OF_PERICENTER": 78.8473, "MEAN_ANOMALY": 295.9747, "EPHEMERIS_TYPE": 0, "CLASSIFICATION_TYPE": "U", "NORAD_CAT_ID": 31656, "ELEMENT_SET_NO": 999, "REV_AT_EPOCH": 96318, "BSTAR": 0.0029587, "MEAN_MOTION_DOT": 0.00010706, "MEAN_MOTION_DDOT": 0}, "tle": {"line1": "1 31656U 99025CBN 25337.21517079  .00010706  00000+0  29587-2 0  9994", "line2": "2 31656  99.1936 325.1943 0022717  78.8473 295.9747 14.46757304963184"}}, "geometry": {"type": "Point", "coordinates": [126.79001951036618, -65.46125578544287]}}, {"type": "Feature", "properties": {"norad_id": 31657, "name": "FENGYUN 1C DEB", "group": "fengyun-1c-debris", "lat": -28.05069154011038, "lon": -111.9545352633594, "alt_km": 927.4604510488443, "timestamp": "2025-12-05T09:41:19.413337+00:00", "meta": {"OBJECT_NAME": "FENGYUN 1C DEB", "OBJECT_ID": "1999-025CBP", "EPOCH": "2025-12-03T23:26:52.800000", "MEAN_MOTION": 13.96908418, "ECCENTRICITY": 0.01450895, "INCLINATION": 102.2172, "RA_OF_ASC_NODE": 239.5268, "ARG_OF_PERICENTER": 75.1219, "MEAN_ANOMALY": 286.5949, "EPHEMERIS_TYPE": 0, "CLASSIFICATION_TYPE": "U", "NORAD_CAT_ID": 31657, "ELEMENT_SET_NO": 999, "REV_AT_EPOCH": 62742, "BSTAR": 0.0055937829, "MEAN_MOTION_DOT": 8.456e-05, "MEAN_MOTION_DDOT": 0}, "tle": {"line1": "1 31657U 99025CBP 25337.97700000  .00008456  00000+0  55938-2 0  9994", "line2": "2 31657 102.2172 239.5268 0145089  75.1219 286.5949 13.96908418627429"}}, "geometry": {"type": "Point", "coordinates": [-111.9545352633594, -28.05069154011038]}}]}